#aV2019  9 12  0  0  0.00000000     288 DD+AD WGS84 FIT  NGA
## 2070 345600.00000000   300.00000000 58738 0.0000000000000
+   31     1  2  3  5  6  7  8  9 10 11 12 13 14 15 16 17 18
+         19 20 21 22 23 24 25 26 27 28 29 30 31 32  0  0  0
+          0  0  0  0  0  0  0  0  0  0  0  0  0  0  0  0  0
+          0  0  0  0  0  0  0  0  0  0  0  0  0  0  0  0  0
+          0  0  0  0  0  0  0  0  0  0  0  0  0  0  0  0  0
++         2  2  2  2  2  2  2  2  2  2  2  2  2  2  2  2  2
++         2  2  2  2  2  2  2  2  2  2  2  2  2  2  0  0  0
++         0  0  0  0  0  0  0  0  0  0  0  0  0  0  0  0  0
++         0  0  0  0  0  0  0  0  0  0  0  0  0  0  0  0  0
++         0  0  0  0  0  0  0  0  0  0  0  0  0  0  0  0  0
%c cc cc ccc ccc cccc cccc cccc cccc ccccc ccccc ccccc ccccc
%c cc cc ccc ccc cccc cccc cccc cccc ccccc ccccc ccccc ccccc
%f  0.0000000  0.000000000  0.00000000000  0.000000000000000
%f  0.0000000  0.000000000  0.00000000000  0.000000000000000
%i    0    0    0    0      0      0      0      0         0
%i    0    0    0    0      0      0      0      0         0
/*      NGA, ST. LOUIS,MO.                                  
/*   EPHEMERIS COMPUTED FROM 2 DAYS OF DATA                 
/*   EPOCHA v5 SMOOTHER                                     
/*   G1762 IERS2010 SATAF SATAPC                            
*  2019  9 12  6  0  0.00000000
P  1  -3523.136674 -14544.551513 -22145.020068   -126.075563                    
V  1  26945.665479  -5899.161008   -107.717900     -0.124242                    
P  2 -17299.217195  15255.688942  13662.664285   -303.233232                    
V  2 -16365.328693   2544.114260 -24815.942376     -0.081778                    
P  3 -11553.173015 -22058.377444  -9424.673332    -10.131631                    
V  3   9810.259712   7072.558734 -28656.087515     -0.039034                    
P  5  -6676.109151  14596.083419  20997.445566     -1.345219                    
V  5 -19524.451425 -18730.801838   6967.747660     -0.003291                    
P  6 -25883.988806   6022.800056     16.871862    -54.708622                    
V  6   -495.865214  -2254.281181 -32074.441876     -0.123886                    
P  7 -19258.579999  -8127.853871  16938.992175   -104.594713                    
V  7  20017.597432  -5891.936687  19792.728871     -0.079745                    
P  8   4425.029444 -25713.054476  -4292.213843     -6.159692                    
V  8   4081.179911  -4558.919570  31482.933971     -0.013368                    
P  9 -10457.428625 -14293.558971  19745.604481    -29.158743                    
V  9   8251.033163 -23844.208556 -12868.607121     -0.094721                    
P 10  20820.580586   7006.756152 -15017.386940    -50.357211                    
V 10  11676.318536  15212.108668  22980.781448     -0.152027                    
P 11   -698.048385 -18777.855968 -19393.772511   -509.467726                    
V 11  19389.331753 -13621.363993  12542.298860      0.108119                    
P 12   7044.797141  22355.510405 -12858.422092    204.853241                    
V 12 -11230.111917 -11348.619148 -26164.114786     -0.037997                    
P 13 -13015.317642  22797.832921   3693.248654    -44.799463                    
V 13   -406.928624  -5481.155338  31500.741120      0.020613                    
P 14  16774.600373 -13169.779616 -15388.091119    -61.780983                    
V 14  -5391.229274  19595.352256 -22358.227561      0.019853                    
P 15  -1176.072001  25835.449310  -5327.746948   -287.576781                    
V 15  -5231.056772   5601.895437  30273.602510      0.027155                    
P 16   8776.675210 -12247.535233  21634.703840    -73.350616                    
V 16  17604.549187  21679.116164   5505.819898     -0.034556                    
P 17 -15975.245810   4284.422643 -20347.157275    123.973536                    
V 17   8400.890671 -25398.623139 -11788.402952      0.071050                    
P 18   5888.821528 -16630.091918 -20331.865555     85.063446                    
V 18  24106.385185  -5730.809197  12074.501438      0.028838                    
P 19 -17184.430276  10532.048531 -17615.540233   -268.401952                    
V 19   7317.545288 -20478.183844 -19688.402566      0.051543                    
P 20  22508.568516  12972.689801  -6060.151480    526.835808                    
V 20   3599.658959   7474.479525  29710.296219      0.001377                    
P 21  22065.463138   4480.196854  14731.095134   -120.301095                    
V 21 -16111.232628   7109.072164  23417.621913      0.064788                    
P 22  -5953.818867 -20892.990415 -15121.485167   -753.967938                    
V 22  16263.837945  11349.477764 -21674.349571     -0.038635                    
P 23  -3129.376122 -23026.912495  12840.112501   -167.331956                    
V 23   7136.250075 -14552.342431 -25417.773537      0.020262                    
P 24   1247.302863  15940.997264 -21339.784458     -2.048477                    
V 24 -25960.132847   6861.780462   3978.541189     -0.005399                    
P 25  17744.426956  19942.684492   -747.034046    -11.821567                    
V 25  -2186.976422   1087.207506 -31749.013686     -0.015619                    
P 26  16271.805918  -4404.729800  20549.622080     36.999233                    
V 26  17678.512359  19253.463070  -9680.016362      0.088260                    
P 27  12235.828351 -21989.927695   7885.813025    -52.941486                    
V 27   -721.732835  10474.434969  30191.574147     -0.121247                    
P 28 -19504.592573  -8672.824381 -15132.855063    762.422525                    
V 28 -10980.309048 -17186.691108  23189.744010     -0.010817                    
P 29   7126.917073  16920.419821  19148.761921    100.113945                    
V 29  -9617.080508  22375.962110 -16185.312193     -0.101698                    
P 30 -25507.643822   -959.814908   7734.997214    -38.962818                    
V 30   9017.605033  -4832.173452  29065.122747     -0.079642                    
P 31  25900.894779  -6616.815441   1994.366393     10.954473                    
V 31   2949.719308   1945.487206 -31285.277931     -0.026117                    
P 32  16314.924307  -4449.912862 -20387.376194     53.812846                    
V 32  -6438.970031  25288.791303 -10761.885935      0.137556                    
EOF
